CCSDS_OMM_VERS = 2.0
CREATION_DATE  = 
ORIGINATOR     = 

OBJECT_NAME    = XIWANG-5 02
OBJECT_ID      = 2025-296A
CENTER_NAME    = EARTH
REF_FRAME      = TEME
TIME_SYSTEM    = UTC
MEAN_ELEMENT_THEORY = SGP/SGP4

EPOCH          = 2026-01-12T05:40:44.362848
MEAN_MOTION    = 15.13284692
ECCENTRICITY   = .00008487
INCLINATION    = 41.3521
RA_OF_ASC_NODE = 288.2781
ARG_OF_PERICENTER = 14.9847
MEAN_ANOMALY   = 345.0998

EPHEMERIS_TYPE = 0
CLASSIFICATION_TYPE = U
NORAD_CAT_ID   = 67069
ELEMENT_SET_NO = 999
REV_AT_EPOCH   = 458
BSTAR          = .62552004E-3
MEAN_MOTION_DOT = .11163E-3
MEAN_MOTION_DDOT = 0

CCSDS_OMM_VERS = 2.0
CREATION_DATE  = 
ORIGINATOR     = 

OBJECT_NAME    = DEAR-5
OBJECT_ID      = 2025-296B
CENTER_NAME    = EARTH
REF_FRAME      = TEME
TIME_SYSTEM    = UTC
MEAN_ELEMENT_THEORY = SGP/SGP4

EPOCH          = 2026-01-12T01:16:22.116000
MEAN_MOTION    = 15.17064397
ECCENTRICITY   = .00208541
INCLINATION    = 41.3570
RA_OF_ASC_NODE = 288.6487
ARG_OF_PERICENTER = 230.9743
MEAN_ANOMALY   = 128.9222

EPHEMERIS_TYPE = 0
CLASSIFICATION_TYPE = U
NORAD_CAT_ID   = 67070
ELEMENT_SET_NO = 999
REV_AT_EPOCH   = 455
BSTAR          = .3157026E-3
MEAN_MOTION_DOT = .6204E-4
MEAN_MOTION_DDOT = 0

CCSDS_OMM_VERS = 2.0
CREATION_DATE  = 
ORIGINATOR     = 

OBJECT_NAME    = RAISE-4
OBJECT_ID      = 2025-297B
CENTER_NAME    = EARTH
REF_FRAME      = TEME
TIME_SYSTEM    = UTC
MEAN_ELEMENT_THEORY = SGP/SGP4

EPOCH          = 2026-01-12T07:16:29.091936
MEAN_MOTION    = 15.07478371
ECCENTRICITY   = .0012118
INCLINATION    = 97.4863
RA_OF_ASC_NODE = 164.0344
ARG_OF_PERICENTER = 207.8530
MEAN_ANOMALY   = 152.2051

EPHEMERIS_TYPE = 0
CLASSIFICATION_TYPE = U
NORAD_CAT_ID   = 67073
ELEMENT_SET_NO = 999
REV_AT_EPOCH   = 439
BSTAR          = .37916584E-3
MEAN_MOTION_DOT = .57E-4
MEAN_MOTION_DDOT = 0

CCSDS_OMM_VERS = 2.0
CREATION_DATE  = 
ORIGINATOR     = 

OBJECT_NAME    = STARLINK-36230
OBJECT_ID      = 2025-298A
CENTER_NAME    = EARTH
REF_FRAME      = TEME
TIME_SYSTEM    = UTC
MEAN_ELEMENT_THEORY = SGP/SGP4

EPOCH          = 2026-01-12T06:00:02.000160
MEAN_MOTION    = 15.42646360
ECCENTRICITY   = .00033639
INCLINATION    = 69.9993
RA_OF_ASC_NODE = 164.8272
ARG_OF_PERICENTER = 270.8301
MEAN_ANOMALY   = 31.8509

EPHEMERIS_TYPE = 0
CLASSIFICATION_TYPE = U
NORAD_CAT_ID   = 67075
ELEMENT_SET_NO = 999
REV_AT_EPOCH   = 587
BSTAR          = .26380138E-2
MEAN_MOTION_DOT = .116882E-2
MEAN_MOTION_DDOT = 0

CCSDS_OMM_VERS = 2.0
CREATION_DATE  = 
ORIGINATOR     = 

OBJECT_NAME    = STARLINK-36240
OBJECT_ID      = 2025-298B
CENTER_NAME    = EARTH
REF_FRAME      = TEME
TIME_SYSTEM    = UTC
MEAN_ELEMENT_THEORY = SGP/SGP4

EPOCH          = 2026-01-12T06:00:02.000160
MEAN_MOTION    = 15.42646304
ECCENTRICITY   = .00033341
INCLINATION    = 69.9994
RA_OF_ASC_NODE = 164.8017
ARG_OF_PERICENTER = 268.3305
MEAN_ANOMALY   = 56.3514

EPHEMERIS_TYPE = 0
CLASSIFICATION_TYPE = U
NORAD_CAT_ID   = 67076
ELEMENT_SET_NO = 999
REV_AT_EPOCH   = 587
BSTAR          = .26303355E-2
MEAN_MOTION_DOT = .116536E-2
MEAN_MOTION_DDOT = 0

CCSDS_OMM_VERS = 2.0
CREATION_DATE  = 
ORIGINATOR     = 

OBJECT_NAME    = STARLINK-36243
OBJECT_ID      = 2025-298C
CENTER_NAME    = EARTH
REF_FRAME      = TEME
TIME_SYSTEM    = UTC
MEAN_ELEMENT_THEORY = SGP/SGP4

EPOCH          = 2026-01-11T19:33:15.921504
MEAN_MOTION    = 15.42716279
ECCENTRICITY   = .00032032
INCLINATION    = 70.0003
RA_OF_ASC_NODE = 166.0543
ARG_OF_PERICENTER = 268.0335
MEAN_ANOMALY   = 92.0480

EPHEMERIS_TYPE = 0
CLASSIFICATION_TYPE = U
NORAD_CAT_ID   = 67077
ELEMENT_SET_NO = 999
REV_AT_EPOCH   = 449
BSTAR          = .7601766E-3
MEAN_MOTION_DOT = .3329E-3
MEAN_MOTION_DDOT = 0

CCSDS_OMM_VERS = 2.0
CREATION_DATE  = 
ORIGINATOR     = 

OBJECT_NAME    = STARLINK-36236
OBJECT_ID      = 2025-298D
CENTER_NAME    = EARTH
REF_FRAME      = TEME
TIME_SYSTEM    = UTC
MEAN_ELEMENT_THEORY = SGP/SGP4

EPOCH          = 2026-01-12T00:00:02.999808
MEAN_MOTION    = 15.42682278
ECCENTRICITY   = .00033221
INCLINATION    = 69.9991
RA_OF_ASC_NODE = 165.5278
ARG_OF_PERICENTER = 273.4614
MEAN_ANOMALY   = 58.2514

EPHEMERIS_TYPE = 0
CLASSIFICATION_TYPE = U
NORAD_CAT_ID   = 67078
ELEMENT_SET_NO = 999
REV_AT_EPOCH   = 583
BSTAR          = -.17434095E-4
MEAN_MOTION_DOT = -.911E-5
MEAN_MOTION_DDOT = 0

CCSDS_OMM_VERS = 2.0
CREATION_DATE  = 
ORIGINATOR     = 

OBJECT_NAME    = STARLINK-36159
OBJECT_ID      = 2025-298E
CENTER_NAME    = EARTH
REF_FRAME      = TEME
TIME_SYSTEM    = UTC
MEAN_ELEMENT_THEORY = SGP/SGP4

EPOCH          = 2026-01-11T20:32:23.845920
MEAN_MOTION    = 15.42744519
ECCENTRICITY   = .00033143
INCLINATION    = 70.0003
RA_OF_ASC_NODE = 166.2043
ARG_OF_PERICENTER = 269.6482
MEAN_ANOMALY   = 90.4320

EPHEMERIS_TYPE = 0
CLASSIFICATION_TYPE = U
NORAD_CAT_ID   = 67079
ELEMENT_SET_NO = 999
REV_AT_EPOCH   = 449
BSTAR          = .53360677E-3
MEAN_MOTION_DOT = .23316E-3
MEAN_MOTION_DDOT = 0

CCSDS_OMM_VERS = 2.0
CREATION_DATE  = 
ORIGINATOR     = 

OBJECT_NAME    = STARLINK-36158
OBJECT_ID      = 2025-298F
CENTER_NAME    = EARTH
REF_FRAME      = TEME
TIME_SYSTEM    = UTC
MEAN_ELEMENT_THEORY = SGP/SGP4

EPOCH          = 2026-01-11T19:38:58.279776
MEAN_MOTION    = 15.42713971
ECCENTRICITY   = .00035016
INCLINATION    = 70.0003
RA_OF_ASC_NODE = 166.0679
ARG_OF_PERICENTER = 270.0284
MEAN_ANOMALY   = 90.0496

EPHEMERIS_TYPE = 0
CLASSIFICATION_TYPE = U
NORAD_CAT_ID   = 67080
ELEMENT_SET_NO = 999
REV_AT_EPOCH   = 449
BSTAR          = .66649922E-3
MEAN_MOTION_DOT = .29152E-3
MEAN_MOTION_DDOT = 0

CCSDS_OMM_VERS = 2.0
CREATION_DATE  = 
ORIGINATOR     = 

OBJECT_NAME    = STARLINK-35864
OBJECT_ID      = 2025-298G
CENTER_NAME    = EARTH
REF_FRAME      = TEME
TIME_SYSTEM    = UTC
MEAN_ELEMENT_THEORY = SGP/SGP4

EPOCH          = 2026-01-11T19:44:55.781376
MEAN_MOTION    = 15.42732197
ECCENTRICITY   = .00039562
INCLINATION    = 70.0000
RA_OF_ASC_NODE = 166.0834
ARG_OF_PERICENTER = 268.8876
MEAN_ANOMALY   = 91.1852

EPHEMERIS_TYPE = 0
CLASSIFICATION_TYPE = U
NORAD_CAT_ID   = 67081
ELEMENT_SET_NO = 999
REV_AT_EPOCH   = 449
BSTAR          = .30944569E-3
MEAN_MOTION_DOT = .13437E-3
MEAN_MOTION_DDOT = 0

CCSDS_OMM_VERS = 2.0
CREATION_DATE  = 
ORIGINATOR     = 

OBJECT_NAME    = STARLINK-36035
OBJECT_ID      = 2025-298H
CENTER_NAME    = EARTH
REF_FRAME      = TEME
TIME_SYSTEM    = UTC
MEAN_ELEMENT_THEORY = SGP/SGP4

EPOCH          = 2026-01-11T19:50:38.525856
MEAN_MOTION    = 15.42723535
ECCENTRICITY   = .00034031
INCLINATION    = 69.9999
RA_OF_ASC_NODE = 166.0976
ARG_OF_PERICENTER = 284.3736
MEAN_ANOMALY   = 75.7068

EPHEMERIS_TYPE = 0
CLASSIFICATION_TYPE = U
NORAD_CAT_ID   = 67082
ELEMENT_SET_NO = 999
REV_AT_EPOCH   = 449
BSTAR          = .11331778E-2
MEAN_MOTION_DOT = .49817E-3
MEAN_MOTION_DDOT = 0

