XIWANG-5 02             
1 67069U 25296A   26012.23662457  .00011163  00000+0  62552-3 0  9992
2 67069  41.3521 288.2781 0000848  14.9847 345.0998 15.13284692  4581
DEAR-5                  
1 67070U 25296B   26012.05303375  .00006204  00000+0  31570-3 0  9991
2 67070  41.3570 288.6487 0020854 230.9743 128.9222 15.17064397  4555
RAISE-4                 
1 67073U 25297B   26012.30311449  .00005700  00000+0  37917-3 0  9995
2 67073  97.4863 164.0344 0012118 207.8530 152.2051 15.07478371  4397
STARLINK-36230          
1 67075U 25298A   26012.25002315  .00116882  00000+0  26380-2 0  9996
2 67075  69.9993 164.8272 0003363 270.8301  31.8509 15.42646360  5871
STARLINK-36240          
1 67076U 25298B   26012.25002315  .00116536  00000+0  26303-2 0  9998
2 67076  69.9994 164.8017 0003334 268.3305  56.3514 15.42646304  5870
STARLINK-36243          
1 67077U 25298C   26011.81476761  .00033290  00000+0  76018-3 0  9994
2 67077  70.0003 166.0543 0003203 268.0335  92.0480 15.42716279  4493
STARLINK-36236          
1 67078U 25298D   26012.00003472 -.00000911  00000+0 -17434-4 0  9996
2 67078  69.9991 165.5278 0003322 273.4614  58.2514 15.42682278  5830
STARLINK-36159          
1 67079U 25298E   26011.85583155  .00023316  00000+0  53361-3 0  9990
2 67079  70.0003 166.2043 0003314 269.6482  90.4320 15.42744519  4498
STARLINK-36158          
1 67080U 25298F   26011.81873009  .00029152  00000+0  66650-3 0  9997
2 67080  70.0003 166.0679 0003501 270.0284  90.0496 15.42713971  4495
STARLINK-35864          
1 67081U 25298G   26011.82286784  .00013437  00000+0  30945-3 0  9994
2 67081  70.0000 166.0834 0003956 268.8876  91.1852 15.42732197  4491
STARLINK-36035          
1 67082U 25298H   26011.82683479  .00049817  00000+0  11332-2 0  9996
2 67082  69.9999 166.0976 0003403 284.3736  75.7068 15.42723535  4491
